[ {"name": "STARLINK-3661", "line1": "1 52129U 22029AT  26128.36111183 -.00000195  00000+0  58086-5 0  9994", "line2": "2 52129  53.2164 161.2470 0001187  85.7094 274.4034 15.08837315229944"}, {"name": "STARLINK-3711", "line1": "1 52131U 22029AV  26128.59275675  .00019526  00000+0  99267-3 0  9990", "line2": "2 52131  53.2110 155.7090 0003205  36.6652 323.4562 15.16880517230047"}, {"name": "STARLINK-3718", "line1": "1 52132U 22029AW  26128.49727193  .00000060  00000+0  21836-4 0  9998", "line2": "2 52132  53.2158 160.6340 0000850  81.2652 278.8436 15.08849910229967"}, {"name": "STARLINK-3707", "line1": "1 52133U 22029AX  26128.35006919  .00000344  00000+0  39685-4 0  9996", "line2": "2 52133  53.2158 161.2934 0001140  84.0888 276.0234 15.08840777229945"}, {"name": "STARLINK-3721", "line1": "1 52134U 22029AY  26128.35375500  .00000596  00000+0  55542-4 0  9991", "line2": "2 52134  53.2161 161.2788 0001192  88.4817 271.6312 15.08835737229942"}, {"name": "STARLINK-3729", "line1": "1 52135U 22029AZ  26128.75002315  .01247216  00000+0  17481-1 0  9997", "line2": "2 52135  53.2187 154.1215 0001097  87.3859 229.5118 15.53545554  5847"}, {"name": "STARLINK-3720", "line1": "1 52136U 22029BA  26128.41263404 -.00000236  00000+0  32793-5 0  9995", "line2": "2 52136  53.2165 161.0134 0001078  73.8698 286.2413 15.08836761229952"}, {"name": "STARLINK-3733", "line1": "1 52137U 22029BB  26128.40159196 -.00000009  00000+0  17487-4 0  9997", "line2": "2 52137  53.2158 161.0612 0001004  85.7154 274.3953 15.08833973229953"}, {"name": "STARLINK-3723", "line1": "1 52138U 22029BC  26128.47519691  .00000411  00000+0  43899-4 0  9997", "line2": "2 52138  53.2162 160.7317 0001193  83.3050 276.8078 15.08834721229963"}, {"name": "STARLINK-3730", "line1": "1 52139U 22029BD  26128.38963115  .00000202  00000+0  30751-4 0  9993", "line2": "2 52139  53.2164 171.1159 0001277  89.8088 270.3050 15.08837824229800"}, {"name": "STARLINK-3682", "line1": "1 52140U 22029BE  26128.46415300  .00000089  00000+0  23701-4 0  9992", "line2": "2 52140  53.2158 160.7792 0001159  87.7489 272.3636 15.08835227229967"}, {"name": "STARLINK-3761", "line1": "1 52262U 22041B   26128.46047538  .00001016  00000+0  81913-4 0  9995", "line2": "2 52262  53.2162 200.7512 0001062  77.0409 283.0701 15.08832377223384"}, {"name": "STARLINK-3786", "line1": "1 52263U 22041C   26128.46415619  .00001215  00000+0  94391-4 0  9990", "line2": "2 52263  53.2169 200.7807 0000939  96.6769 263.4330 15.08838058223389"}, {"name": "STARLINK-3795", "line1": "1 52264U 22041D   26128.52303649  .00001168  00000+0  91457-4 0  9994", "line2": "2 52264  53.2167 200.5161 0001207  83.8574 276.2555 15.08837303223394"}, {"name": "STARLINK-3740", "line1": "1 52265U 22041E   26128.51935514  .00001413  00000+0  10688-3 0  9995", "line2": "2 52265  53.2166 200.5348 0001174  83.9843 276.1283 15.08838267223391"}, {"name": "STARLINK-3739", "line1": "1 52266U 22041F   26128.51567154  .00001389  00000+0  10535-3 0  9990", "line2": "2 52266  53.2165 200.5511 0001205  93.7570 266.3560 15.08837484223393"}, {"name": "STARLINK-3748", "line1": "1 52267U 22041G   26128.71071944  .00001612  00000+0  11934-3 0  9993", "line2": "2 52267  53.2165 199.6829 0001129  93.4021 266.7100 15.08836427223421"}, {"name": "STARLINK-3746", "line1": "1 52268U 22041H   26128.49358844  .00001926  00000+0  13907-3 0  9996", "line2": "2 52268  53.2170 200.5731 0001286  83.2010 276.9128 15.08847522223398"}, {"name": "STARLINK-3791", "line1": "1 52269U 22041J   26128.50831161  .00000624  00000+0  57319-4 0  9997", "line2": "2 52269  53.2170 200.5864 0001082  85.7625 274.3491 15.08837060223390"}, {"name": "STARLINK-3804", "line1": "1 52270U 22041K   26128.50095738  .00001015  00000+0  81861-4 0  9995", "line2": "2 52270  53.2172 200.6483 0001036  78.5800 281.5308 15.08834311223399"}, {"name": "STARLINK-3788", "line1": "1 52271U 22041L   26128.50463862  .00001373  00000+0  10433-3 0  9996", "line2": "2 52271  53.2168 200.6015 0001263  80.0762 280.0373 15.08832442223392"}, {"name": "STARLINK-3781", "line1": "1 52272U 22041M   26128.49823307  .00000772  00000+0  66609-4 0  9998", "line2": "2 52272  53.2168 200.6700 0001161  91.0556 269.0569 15.08835620223399"}, {"name": "STARLINK-3782", "line1": "1 52273U 22041N   26128.46976330  .00001341  00000+0  10234-3 0  9996", "line2": "2 52273  53.2167 191.1401 0001172  93.9916 266.1210 15.08831177223523"}, {"name": "STARLINK-3790", "line1": "1 52274U 22041P   26128.48991198  .00000490  00000+0  48889-4 0  9990", "line2": "2 52274  53.2157 200.6636 0001066  80.4119 279.6994 15.08836873223398"}, {"name": "STARLINK-3784", "line1": "1 52275U 22041Q   26128.49727880  .00000953  00000+0  77950-4 0  9992", "line2": "2 52275  53.2170 200.6351 0001140  94.7838 265.3284 15.08830383223391"}, {"name": "STARLINK-3778", "line1": "1 52276U 22041R   26128.48623376  .00001149  00000+0  90251-4 0  9994", "line2": "2 52276  53.2170 200.6807 0001166  88.5470 271.5656 15.08834999223398"}, {"name": "STARLINK-3780", "line1": "1 52278U 22041T   26128.48255247 -.00000628  00000+0 -21367-4 0  9999", "line2": "2 52278  53.2160 200.6967 0001336  97.0290 263.0854 15.08829823223396"}, {"name": "STARLINK-3764", "line1": "1 52280U 22041V   26128.47151145 -.00000075  00000+0  13343-4 0  9993", "line2": "2 52280  53.2164 200.7486 0001100  86.0988 274.0130 15.08838550223397"}, {"name": "STARLINK-3779", "line1": "1 52281U 22041W   26128.55343772  .00008154  00000+0  53048-3 0  9992", "line2": "2 52281  53.2172 200.3780 0001385  91.5852 268.5299 15.08793860223406"}, {"name": "STARLINK-3783", "line1": "1 52282U 22041X   26128.46508829  .00002410  00000+0  16954-3 0  9993", "line2": "2 52282  53.2163 190.7788 0001288  86.4304 273.6836 15.08823299223521"}, {"name": "STARLINK-3789", "line1": "1 52283U 22041Y   26128.47887186  .00000508  00000+0  49993-4 0  9997", "line2": "2 52283  53.2165 200.7126 0000887  76.4409 283.6682 15.08837337223394"}, {"name": "STARLINK-3561", "line1": "1 52284U 22041Z   26128.45771750  .00001391  00000+0  10550-3 0  9992", "line2": "2 52284  53.2163 190.8088 0000969  94.1624 265.9479 15.08832241223527"}, {"name": "STARLINK-3802", "line1": "1 52286U 22041AB  26128.38411032 -.00000007  00000+0  17673-4 0  9998", "line2": "2 52286  53.2163 191.1419 0001234  86.8340 273.2793 15.08836096223512"}, {"name": "STARLINK-3822", "line1": "1 52287U 22041AC  26128.46784516  .00006188  00000+0  40670-3 0  9995", "line2": "2 52287  53.2174 200.7652 0001328  87.2418 272.8726 15.08826198223395"}, {"name": "STARLINK-3776", "line1": "1 52288U 22041AD  26128.64538226  .00000609  00000+0  56371-4 0  9999", "line2": "2 52288  53.2162 189.9699 0001193  85.1495 274.9634 15.08843794223554"}, {"name": "STARLINK-3751", "line1": "1 52289U 22041AE  26128.46139525  .00001410  00000+0  10667-3 0  9997", "line2": "2 52289  53.2165 190.7926 0000741  80.8329 279.2747 15.08834232223524"}, {"name": "STARLINK-3772", "line1": "1 52290U 22041AF  26128.43658794  .00000706  00000+0  62436-4 0  9999", "line2": "2 52290  53.2164 190.9067 0001169  82.7812 277.3313 15.08838852223526"}, {"name": "STARLINK-3753", "line1": "1 52292U 22041AH  26128.43194988  .00001174  00000+0  91853-4 0  9996", "line2": "2 52292  53.2163 190.9255 0001258  91.4548 268.6588 15.08840196223529"}, {"name": "STARLINK-3771", "line1": "1 52293U 22041AJ  26128.44394587  .00000824  00000+0  69826-4 0  9991", "line2": "2 52293  53.2166 190.8816 0001276  90.3588 269.7550 15.08840754223528"}, {"name": "STARLINK-3777", "line1": "1 52294U 22041AK  26128.49451481  .00001221  00000+0  94787-4 0  9990", "line2": "2 52294  53.2160 190.6444 0001138  82.3290 277.7831 15.08838369223537"}, {"name": "STARLINK-3765", "line1": "1 52295U 22041AL  26128.43932020  .00000550  00000+0  52636-4 0  9999", "line2": "2 52295  53.2155 190.8924 0001093  77.2315 282.8799 15.08831823223525"}, {"name": "STARLINK-3766", "line1": "1 52296U 22041AM  26128.48347275  .00000436  00000+0  45462-4 0  9999", "line2": "2 52296  53.2168 190.6988 0001155  86.1544 273.9580 15.08837033223539"}, {"name": "STARLINK-3758", "line1": "1 52297U 22041AN  26128.43563612  .00001108  00000+0  87724-4 0  9994", "line2": "2 52297  53.2167 190.9101 0001192  79.4921 280.6205 15.08836420223521"}, {"name": "STARLINK-3760", "line1": "1 52298U 22041AP  26128.44294575  .00000964  00000+0  78637-4 0  9997", "line2": "2 52298  53.2165 190.4900 0001315  88.1523 271.9619 15.08836188223538"}, {"name": "STARLINK-3769", "line1": "1 52300U 22041AR  26128.47243186  .00001234  00000+0  95619-4 0  9996", "line2": "2 52300  53.2163 190.7458 0001007  82.7129 277.3977 15.08836325224756"}, {"name": "STARLINK-3768", "line1": "1 52301U 22041AS  26128.49083648  .00000836  00000+0  70587-4 0  9998", "line2": "2 52301  53.2157 190.6618 0001034  82.2466 277.8644 15.08834659223535"}, {"name": "STARLINK-3564", "line1": "1 52302U 22041AT  26128.46232715  .00000330  00000+0  38853-4 0  9996", "line2": "2 52302  53.2163 180.7907 0001129  85.6960 274.4161 15.08830026223660"}, {"name": "STARLINK-3742", "line1": "1 52303U 22041AU  26128.47609774  .00003293  00000+0  22479-3 0  9998", "line2": "2 52303  53.2170 190.7289 0001229  92.6497 267.4636 15.08850709224757"}, {"name": "STARLINK-3744", "line1": "1 52304U 22041AV  26128.65734830  .00000540  00000+0  52031-4 0  9991", "line2": "2 52304  53.2164 179.9168 0001104  87.8811 272.2308 15.08841072223699"}, {"name": "STARLINK-3724", "line1": "1 52305U 22041AW  26128.47980508  .00000457  00000+0  46767-4 0  9993", "line2": "2 52305  53.2158 190.8191 0001041  79.8928 280.2181 15.08837815223532"}, {"name": "STARLINK-3747", "line1": "1 52306U 22041AX  26128.65367470  .00000742  00000+0  64713-4 0  9999", "line2": "2 52306  53.2159 179.9329 0001110  84.5064 275.6055 15.08834950224914"}, {"name": "STARLINK-3755", "line1": "1 52307U 22041AY  26128.46875220  .00000407  00000+0  43649-4 0  9999", "line2": "2 52307  53.2171 190.7615 0001149  88.0118 272.1006 15.08833944223536"}]